DUBAISAT-1              
1 35682U 09041B   26187.35312922  .00000959  00000+0  14949-3 0  9991
2 35682  98.0075 320.4034 0010620  17.0415 343.1149 14.75157203907925
OCEANSAT-2              
1 35931U 09051A   26187.85820153 -.00000190  00000+0 -10424-3 0  9997
2 35931  98.2318 172.7459 0016780 177.7227 182.4019 13.99657766882084
WORLDVIEW-2 (WV-2)      
1 35946U 09055A   26187.85661737  .00000105  00000+0  49238-4 0  9998
2 35946  98.4759 261.0380 0004928 150.4468 209.6998 14.37905345878470
SMOS                    
1 36036U 09059A   26187.50924061  .00000238  00000+0  89704-4 0  9996
2 36036  98.4427  14.5612 0001301  86.9470 273.1867 14.39783231876233
YAOGAN-7                
1 36110U 09069A   26187.65378916  .00000467  00000+0  71723-4 0  9994
2 36110  98.0047  73.3985 0024100 339.8276  20.1980 14.78030005892503
TANDEM-X                
1 36605U 10030A   26187.49113280  .00000441  00000+0  24210-4 0  9997
2 36605  97.4457 194.9233 0001853  95.7650 264.3796 15.19153296889574
CARTOSAT-2B             
1 36795U 10035A   26187.82878382  .00000784  00000+0  11417-3 0  9994
2 36795  97.9937 238.2523 0012316 123.4294 236.8097 14.78610538862755
YAOGAN-10               
1 36834U 10038A   26187.89789444  .00001750  00000+0  20947-3 0  9990
2 36834  97.8969 211.1446 0001614  84.5037  36.1055 14.85411784860133
COSMO-SKYMED 4          
1 37216U 10060A   26187.81925569  .00001245  00000+0  16285-3 0  9991
2 37216  97.8895  11.1347 0001520  86.2606 273.8781 14.82165514847473
RESOURCESAT-2           
1 37387U 11015A   26187.79620843  .00000073  00000+0  53528-4 0  9995
2 37387  98.7635 255.1018 0011088 195.0494 165.0355 14.21604729788969
HAIYANG-2A              
1 37781U 11043A   26187.84386365 -.00000103  00000+0 -64141-4 0  9997
2 37781  99.3400 190.0750 0004015  51.8244 308.3266 13.73745547749351
RASAT                   
1 37791U 11044D   26187.87976819  .00000636  00000+0  11870-3 0  9990
2 37791  98.0576 278.9767 0021602 127.5950 326.6654 14.68187793796075
SRMSAT                  
1 37841U 11058D   26187.37330642  .00000384  00000+0  64430-4 0  9995
2 37841  19.9727 303.3445 0011875  55.1210 344.5933 14.11579689760531
PLEIADES 1A             
1 38012U 11076F   26187.82367133  .00000524  00000+0  12248-3 0  9996
2 38012  98.1966 262.6625 0001742  83.4025  26.5972 14.58544796774855
ZIYUAN 1-02C (ZY 1-02C) 
1 38038U 11079A   26187.90178375  .00000305  00000+0  11468-3 0  9994
2 38038  98.4058 254.7978 0005234 244.2425 170.5040 14.38231004762049
ARIRANG-3 (KOMPSAT-3)   
1 38338U 12025B   26187.87746350  .00000397  00000+0  87994-4 0  9998
2 38338  98.1180 144.9987 0006628  60.2494 299.9366 14.62224033754224
EXACTVIEW-1 (ADS-1B)    
1 38709U 12039C   26187.33944017  .00000128  00000+0  74292-4 0  9995
2 38709  98.9797 305.1641 0011890 114.6379 245.6039 14.24990420725433
SPOT 6                  
1 38755U 12047A   26187.81806416  .00000363  00000+0  88057-4 0  9993
2 38755  98.2106 254.8967 0001173  78.3153 281.8178 14.58535781735913
PLEIADES 1B             
1 39019U 12068A   26187.83666530  .00000280  00000+0  69995-4 0  9991
2 39019  98.1937 262.6178 0001648  81.9346 278.2040 14.58573360723718
GOKTURK 2               
1 39030U 12073A   26187.81425527  .00000576  00000+0  91496-4 0  9996
2 39030  97.6814  24.2611 0000945  69.6135 290.5176 14.75563783727405
LANDSAT 8               
1 39084U 13008A   26187.80170235  .00000272  00000+0  70399-4 0  9998
2 39084  98.2293 257.7033 0001349  94.4684 265.6669 14.57107863700759
SARAL                   
1 39086U 13009A   26187.80286601  .00000075  00000+0  43401-4 0  9991
2 39086  98.5554  14.1220 0001178 191.1197 168.9962 14.32894268698416
GAOFEN-1                
1 39150U 13018A   26187.85112432  .00000827  00000+0  12573-3 0  9998
2 39150  97.9083 259.5192 0016328 198.4285 161.6335 14.76514078711148
VNREDSAT 1              
1 39160U 13021B   26187.82962689  .00000438  00000+0  90468-4 0  9995
2 39160  97.9064 240.4914 0001669  82.1095 278.0298 14.64878208703168
ARIRANG-5 (KOMPSAT-5)   
1 39227U 13042A   26187.85250557  .00002379  00000+0  17396-3 0  9993
2 39227  97.6216  14.2760 0005445  75.4574 284.7256 15.04561970706810
SKYSAT-A                
1 39418U 13066C   26187.70093888  .00002744  00000+0  15799-3 0  9998
2 39418  97.3802 236.4763 0019870 244.4924 115.4252 15.13083788691438
DUBAISAT-2              
1 39419U 13066D   26187.88130506  .00002720  00000+0  16957-3 0  9998
2 39419  97.4579 177.5113 0010049 335.7116  24.3639 15.10335816689366
GPM-CORE                
1 39574U 14009C   26187.69600023  .00005787  00000+0  12730-3 0  9994
2 39574  64.9704 242.7707 0011131 259.2531 100.7357 15.44977181700820
SENTINEL-1A             
1 39634U 14016A   26187.84176566 -.00000142  00000+0 -20371-4 0  9999
2 39634  98.1783 195.0874 0001396  86.1484 273.9875 14.59199535652888
KAZEOSAT 1              
1 39731U 14024A   26187.86575161  .00000188  00000+0  70196-4 0  9990
2 39731  98.3194 259.8234 0001302  80.7675 279.3662 14.42035431641396
